{
  "norad_id": 68848,
  "name": "STARLINK-37373",
  "history": [
    {
      "epoch": "2026-05-02T10:00:03.000096Z",
      "apogee_km": 275.3652480463188,
      "perigee_km": 273.6102856328271,
      "latitude_deg": -44.75938656959825,
      "longitude_deg": -61.513730790618446,
      "height_km": 292.4567497243081,
      "semi_major_axis_km": 6652.624766839573,
      "eccentricity": 0.0001319,
      "inclination_deg": 97.2823,
      "raan_deg": 136.0725,
      "arg_perigee_deg": 93.3101,
      "mean_anomaly_deg": 131.6182,
      "mean_motion_rev_day": 15.99975084
    }
  ]
}