{"fetched_at":"2026-05-03T06:27:58Z","count":17151,"tles":[{"name":"STARLINK-37373","line1":"1 68848U 26094K   26122.41670139 -.01702309  87862-3 -33935-2 0  9992","line2":"2 68848  97.2823 136.0725 0001319  93.3101 131.6182 15.99975084  1945","category":"Starlink"}]}